{"generatedAt":"2026-04-03T07:19:06.299447Z","satellites":[{"name":"STARLINK-5806","tle1":"1 56007U 23042X   26092.91668981  .00073677  00000+0  28012-2 0  9990","tle2":"2 56007  43.0000 282.4225 0001733 258.0713 287.2210 15.25875496  5786"},{"name":"STARLINK-5803","tle1":"1 56008U 23042Y   26092.91668981  .00071357  00000+0  26468-2 0  9997","tle2":"2 56008  43.0001 282.4343 0001474 271.8655 264.9842 15.26707770  5771"},{"name":"STARLINK-5964","tle1":"1 56009U 23042Z   26092.80968899  .00001291  00000+0  88761-4 0  9993","tle2":"2 56009  42.9986 283.7724 0000254 212.8246 147.2584 15.11072501166556"},{"name":"STARLINK-5968","tle1":"1 56010U 23042AA  26092.91668981  .00085572  00000+0  32468-2 0  9991","tle2":"2 56010  43.0001 282.4839 0001720 266.7104 251.6729 15.25873090  5720"},{"name":"STARLINK-5936","tle1":"1 56011U 23042AB  26092.91668981  .00085700  00000+0  30928-2 0  9994","tle2":"2 56011  43.0008 268.2826 0001487 262.9510  43.6344 15.27526970  5721"},{"name":"STARLINK-5940","tle1":"1 56012U 23042AC  26092.82907492  .00001591  00000+0  68964-4 0  9997","tle2":"2 56012  43.0020 268.3624 0001489 269.6716  90.3965 15.26748795166734"},{"name":"STARLINK-5941","tle1":"1 56013U 23042AD  26092.91668981  .00074786  00000+0  28432-2 0  9995","tle2":"2 56013  43.0000 282.6459 0001704 262.5534 186.9169 15.25870955  5720"},{"name":"STARLINK-5942","tle1":"1 56014U 23042AE  26092.78571565  .00002923  00000+0  11856-3 0  9999","tle2":"2 56014  43.0011 268.8920 0001466 286.7661  73.3029 15.26754802166721"},{"name":"STARLINK-5939","tle1":"1 56015U 23042AF  26092.90353484  .00002115  00000+0  88485-4 0  9998","tle2":"2 56015  43.0016 268.0604 0001303 271.8503  88.2199 15.26746654166749"},{"name":"STARLINK-5943","tle1":"1 56016U 23042AG  26092.87758814  .00002587  00000+0  10608-3 0  9995","tle2":"2 56016  43.0015 268.7136 0001650 270.9911  89.0751 15.26747124166739"},{"name":"STARLINK-5934","tle1":"1 56017U 23042AH  26092.87616162  .00882778  00000+0  27208-1 0  9995","tle2":"2 56017  42.9996 268.7037 0016921 320.3959  39.5657 15.30066469166731"},{"name":"STARLINK-5945","tle1":"1 56018U 23042AJ  26092.91668981  .00095303  00000+0  34337-2 0  9999","tle2":"2 56018  43.0007 268.6667 0002133 274.6012 229.3356 15.27527378  5774"},{"name":"STARLINK-5949","tle1":"1 56019U 23042AK  26092.87075275  .00000540  00000+0  29818-4 0  9992","tle2":"2 56019  43.0004 268.6621 0001396 195.1178 164.9632 15.26736069166735"},{"name":"STARLINK-5912","tle1":"1 56020U 23042AL  26092.80466913  .00001331  00000+0  59274-4 0  9998","tle2":"2 56020  43.0008 269.0276 0001281 272.2301  87.8404 15.26748259166723"},{"name":"STARLINK-5907","tle1":"1 56021U 23042AM  26092.87933340  .00008654  00000+0  33186-3 0  9997","tle2":"2 56021  43.0058 268.7322 0002837 288.8180  71.2363 15.26744959166738"},{"name":"STARLINK-5783","tle1":"1 56022U 23042AN  26092.82874587  .00001990  00000+0  83849-4 0  9998","tle2":"2 56022  43.0015 268.3526 0001690 263.6866  96.3793 15.26745514166735"},{"name":"STARLINK-5771","tle1":"1 56023U 23042AP  26092.91668981  .00091450  00000+0  33821-2 0  9991","tle2":"2 56023  43.0007 268.6411 0001774 268.7957 244.6905 15.26688571  5771"},{"name":"STARLINK-5772","tle1":"1 56024U 23042AQ  26092.91617408  .00003300  00000+0  13257-3 0  9999","tle2":"2 56024  43.0010 268.1404 0001402 260.0411 100.0282 15.26758211166748"},{"name":"STARLINK-5766","tle1":"1 56025U 23042AR  26092.91668981  .00089095  00000+0  32130-2 0  9997","tle2":"2 56025  43.0005 268.7762 0001479 273.9991 180.3928 15.27532011  5778"},{"name":"STARLINK-5770","tle1":"1 56026U 23042AS  26092.83612445  .00001792  00000+0  78301-4 0  9993","tle2":"2 56026  43.0019 268.4083 0001426 269.2718  90.7969 15.25916249166734"},{"name":"STARLINK-5777","tle1":"1 56027U 23042AT  26092.90527672  .00002070  00000+0  86804-4 0  9996","tle2":"2 56027  43.0017 268.0651 0001463 269.1629  90.9055 15.26749276166745"},{"name":"STARLINK-5779","tle1":"1 56028U 23042AU  26092.91668981  .00092441  00000+0  33302-2 0  9991","tle2":"2 56028  43.0004 268.3074 0001505 280.6420  11.7333 15.27547401  5781"},{"name":"STARLINK-5774","tle1":"1 56029U 23042AV  26092.78388256  .00000988  00000+0  46512-4 0  9995","tle2":"2 56029  43.0018 268.8680 0001376 268.7332  91.3362 15.26731415166727"},{"name":"STARLINK-5781","tle1":"1 56030U 23042AW  26092.79862516  .00002324  00000+0  96263-4 0  9998","tle2":"2 56030  43.0020 268.9724 0001676 263.9884  96.0776 15.26747849166723"},{"name":"STARLINK-5785","tle1":"1 56031U 23042AX  26092.84651782  .00002628  00000+0  10765-3 0  9995","tle2":"2 56031  43.0018 268.4798 0001439 260.4179  99.6510 15.26732361166732"},{"name":"STARLINK-5786","tle1":"1 56032U 23042AY  26092.91668981  .00084514  00000+0  31280-2 0  9991","tle2":"2 56032  43.0004 268.2599 0001442 272.9025  38.7109 15.26701591  5783"},{"name":"STARLINK-5782","tle1":"1 56034U 23042BA  26092.91668981  .00091577  00000+0  33863-2 0  9999","tle2":"2 56034  43.0005 268.5056 0001698 273.4453 294.3197 15.26692727  5788"},{"name":"STARLINK-5792","tle1":"1 56035U 23042BB  26092.78607306  .00000949  00000+0  45037-4 0  9990","tle2":"2 56035  43.0007 268.8810 0001206 271.8809  88.1904 15.26743966166723"},{"name":"STARLINK-5790","tle1":"1 56036U 23042BC  26092.88020084  .00096639  00000+0  35296-2 0  9999","tle2":"2 56036  42.9998 268.7195 0001559 261.6337  98.4338 15.27072442166731"},{"name":"STARLINK-5758","tle1":"1 56037U 23042BD  26092.75423177  .00001499  00000+0  65539-4 0  9991","tle2":"2 56037  43.0012 254.7398 0001175 260.6003  99.4716 15.26741466166889"},{"name":"STARLINK-5793","tle1":"1 56038U 23042BE  26092.91668981  .00087615  00000+0  32410-2 0  9998","tle2":"2 56038  43.0005 268.4670 0001637 273.0004 310.8604 15.26702701  5774"},{"name":"STARLINK-5795","tle1":"1 56039U 23042BF  26092.76526540 -.00001933  00000+0 -62370-4 0  9997","tle2":"2 56039  43.0018 254.8202 0001397 274.9918  85.0774 15.26748296166884"},{"name":"STARLINK-5798","tle1":"1 56040U 23042BG  26092.78077095  .00002614  00000+0  10706-3 0  9997","tle2":"2 56040  43.0026 254.9360 0001906 272.1589  87.9044 15.26748284166889"},{"name":"STARLINK-5800","tle1":"1 56041U 23042BH  26092.91668981  .00065076  00000+0  24786-2 0  9996","tle2":"2 56041  43.0041 256.7818 0001476 283.8561  78.4377 15.25871517  5663"},{"name":"STARLINK-6109","tle1":"1 56094U 23046B   26092.91668981  .00014682  00000+0  55621-3 0  9998","tle2":"2 56094  43.0023  24.4095 0001349 270.8490 339.2130 15.26724454  5678"},{"name":"STARLINK-6090","tle1":"1 56095U 23046C   26092.91668981  .00547310  00000+0  19039-1 0  9999","tle2":"2 56095  43.0014  24.4515 0001652 286.6543 305.5776 15.26945084  5729"},{"name":"STARLINK-6089","tle1":"1 56096U 23046D   26092.91668981  .00019229  00000+0  72464-3 0  9996","tle2":"2 56096  43.0020  24.5496 0001755 261.3635 289.6622 15.26740298  5689"},{"name":"STARLINK-6077","tle1":"1 56097U 23046E   26092.08311130  .00001323  00000+0  90625-4 0  9992","tle2":"2 56097  42.9965 338.7136 0001488 250.6031 109.4653 15.11081932166195"},{"name":"STARLINK-6088","tle1":"1 56098U 23046F   26092.53160259  .00001135  00000+0  51961-4 0  9998","tle2":"2 56098  43.0029  26.4153 0000725 263.7126  96.3643 15.26745436165680"},{"name":"STARLINK-6076","tle1":"1 56100U 23046H   26092.22904002  .00000231  00000+0  18686-4 0  9993","tle2":"2 56100  43.0045  27.5904 0001517 257.2591 102.8090 15.25914488165641"},{"name":"STARLINK-6095","tle1":"1 56101U 23046J   26092.53468348 -.00000134  00000+0  47070-5 0  9999","tle2":"2 56101  43.0019  26.4322 0001419 269.5719  90.4970 15.26750920165687"},{"name":"STARLINK-6075","tle1":"1 56102U 23046K   26092.95148393  .00002207  00000+0  91906-4 0  9999","tle2":"2 56102  43.0035  24.3964 0001645 269.2126  90.8536 15.26750867165744"},{"name":"STARLINK-6096","tle1":"1 56103U 23046L   26092.91668981  .00017049  00000+0  64383-3 0  9994","tle2":"2 56103  43.0019  24.3337 0001315 259.2825  20.6732 15.26738211  5785"},{"name":"STARLINK-6062","tle1":"1 56104U 23046M   26092.79357229  .00000788  00000+0  39056-4 0  9993","tle2":"2 56104  43.0030  24.9314 0001513 257.0299 103.0384 15.26748951165723"},{"name":"STARLINK-6066","tle1":"1 56105U 23046N   26092.82638929  .00001653  00000+0  71274-4 0  9997","tle2":"2 56105  43.0020  25.1773 0001454 272.8292  87.2393 15.26751619165725"},{"name":"STARLINK-6030","tle1":"1 56107U 23046Q   26092.91668981  .00019908  00000+0  73147-3 0  9992","tle2":"2 56107  43.0010  25.0430 0001185 258.2808  78.4240 15.27559267  5774"},{"name":"STARLINK-6081","tle1":"1 56108U 23046R   26092.91668981  .00012407  00000+0  48356-3 0  9994","tle2":"2 56108  43.0019  24.5707 0001568 261.0980 277.5059 15.25894276  5784"},{"name":"STARLINK-6083","tle1":"1 56109U 23046S   26092.91668981  .00017711  00000+0  66839-3 0  9994","tle2":"2 56109  43.0005  24.9524 0001020 248.6698 126.5058 15.26737752  5677"},{"name":"STARLINK-6082","tle1":"1 56110U 23046T   26092.83344077  .00001697  00000+0  72924-4 0  9993","tle2":"2 56110  43.0015  25.2279 0001238 272.8433  87.2277 15.26749229165729"},{"name":"STARLINK-6084","tle1":"1 56111U 23046U   26092.91668981  .00057040  00000+0  21743-2 0  9990","tle2":"2 56111  42.9997  24.9794 0001006  22.6140 339.1126 15.25899133  5773"},{"name":"STARLINK-6080","tle1":"1 56112U 23046V   26092.91668981  .00111604  00000+0  41229-2 0  9999","tle2":"2 56112  43.0006  24.7012 0001243 251.6901 229.3676 15.26617872  5779"},{"name":"STARLINK-6113","tle1":"1 56113U 23046W   26092.91668981  .00032040  00000+0  11993-2 0  9991","tle2":"2 56113  43.0008  24.3795 0001328 262.0840 354.4310 15.26730235  5660"},{"name":"STARLINK-6101","tle1":"1 56115U 23046Y   26092.84637491 -.00007872  00000+0 -28366-3 0  9997","tle2":"2 56115  43.0056  21.9063 0002136 269.7675  90.2932 15.26787431165767"},{"name":"STARLINK-6114","tle1":"1 56116U 23046Z   26092.82225361  .00002453  00000+0  10358-3 0  9995","tle2":"2 56116  43.0039  25.1440 0001222 265.0746  94.9965 15.25912033165727"}]}